SAUDISAT 1C (SO-50)     
1 27607U 02058C   26160.33310560  .00000929  00000+0  12688-3 0  9990
2 27607  64.5504 153.2855 0075433 263.9300  95.3207 14.83029515263298
SAUDISAT 2              
1 28371U 04025F   26160.54182817  .00000253  00000+0  67661-4 0  9992
2 28371  98.5506 160.3262 0023922 322.6789  37.2745 14.56679430164634
SAUDISAT 3              
1 31118U 07012B   26160.43842614  .00000244  00000+0  47679-4 0  9997
2 31118  98.1453 110.8342 0013329 250.7072 109.2694 14.71421134 26609
PISAT                   
1 41784U 16059B   26160.51503089  .00000870  00000+0  15581-3 0  9998
2 41784  97.8178 161.2976 0027836 228.0857 131.7975 14.68970440518613
FLYING LAPTOP           
1 42831U 17042G   26160.58642477  .00003771  00000+0  29804-3 0  9993
2 42831  97.4658 316.4141 0019191 146.5534 213.6907 15.01097072485319
SALSAT                  
1 46495U 20068K   26160.49232390  .00007245  00000+0  25454-3 0  9991
2 46495  97.8855 163.0891 0008742 339.5990  20.4898 15.29688082314186
